Name,Address,Address2,Address3,City,State,Zip,Phone,Latitude,Longitude
Sichuan Hot Pot Cuisine,2162 Rockwell Ave,,,Cleveland,OH,,+12165231188,41.5086,-81.67808
Emperor's Palace,2136 Rockwell Ave,,,Cleveland,OH,,+12168619999,41.508385,-81.678449
Ha Ahn Korean Restaurant,3030 Superior Ave E,,,Cleveland,OH,,+12166641152,41.51056,-81.6698
LJ Shanghai,3142 Superior Ave,,,Cleveland,OH,,+12164006936,41.51093,-81.66888
Siam Cafe,3951 St Clair Ave NE,,,Cleveland,OH,,+12163612323,41.516503,-81.6649155
Szechuan Cafe,2999 Payne Ave,Ste 145,,Cleveland,OH,,+12165151111,41.50811,-81.6691
Li Wah,2999 Payne Ave,Ste 102,,Cleveland,OH,,+12166966556,41.5083668054267,-81.669370655881
Szechuan Gourmet,1735 E 36th St,,,Cleveland,OH,,+12168819688,41.508505,-81.663319
Faith Sung Inc Dba Asian Kitchen,1301 E 9th St,,,Cleveland,OH,,+12165750808,41.504833,-81.690637
Great Taste Chinese Restaurant,1803 E 12th St,,,Cleveland,OH,,+12166859997,41.5019684,-81.6846008
Sung's House,1507 Euclid Ave,,,Cleveland,OH,,+12166967655,41.5010661,-81.6808243
Sapporo Sushi,1940 E 6th St,,,Cleveland,OH,,+12165797000,41.5003699,-81.68961
Sakura,530 Euclid Ave,,,Cleveland,OH,,+12162740823,41.499748,-81.689162
Saigon Restaurant and Bar,2061 E 4th St,,,Cleveland,OH,,+12163442020,41.4989085,-81.6899104
Otani Noodle - Downtown,234 Euclid Ave,,,Cleveland,OH,,+12167621815,41.4994509,-81.6915759
Hanabi Japanese Restaurant,1313 W 6th St,,,Cleveland,OH,,+12162985060,41.4999177314058,-81.6987037927706
Tomo Sushi & Hibachi,1293 W 9th St,,,Cleveland,OH,,+12166964444,41.4994850158691,-81.7004547119141
Sakura Japanese Cuisine,2533 E 55th St,,,Cleveland,OH,,+12168818839,41.4893608,-81.6511536
Hunan One,7901 Euclid Ave,,,Cleveland,OH,,+12164210450,41.50451,-81.63322
Ginko Restaurant,2247 Professor Ave,,,Cleveland,OH,,+12162741202,41.48156,-81.68643
Wasabi Restaurant,2123 E79th St,,,Cleveland,OH,,+12164597533,41.500843824783,-81.6334452753302
China Mountain III,7907 Cedar Ave,,,Cleveland,OH,,+12168814477,41.50049,-81.6327699
China Town II,2051 W 25th St,,,Cleveland,OH,,+12165749250,41.48365,-81.70253
Corner 11 Bowl & Wrap,2391 W 11th St,,,Cleveland,OH,,+12167131757,41.47948,-81.68903
China One,2765 E 55th St,,,Cleveland,OH,,+12168818881,41.4830741882324,-81.6509399414062
IPoké Cleveland,10001 Chester Ave,,,Cleveland,OH,,+12167591001,41.50573,-81.61866
Xinji Noodle Bar,4211 Lorain Ave,,,Cleveland,OH,,+12164652439,41.47957,-81.71521
Mason's Creamery,4401 Bridge Ave,,,Cleveland,OH,,+12167621095,41.4804680356218,-81.7166946922636
Hong Kong Kitchen,2802 Clark Ave,,,Cleveland,OH,,+12165668811,41.470184,-81.701073
China Dragon,2802 Clark Ave,,,Cleveland,OH,,+12165668811,41.4701004,-81.7010803
Panda Express,3244 Steelyard Dr,,,Cleveland,OH,,+12166611027,41.4653161,-81.6871265
Nüjoy,11311 Euclid Ave,,,Cleveland,OH,,+12169997016,41.5087236,-81.6059985
Wing Wah,5853 Broadway Ave,,,Cleveland,OH,,+12166416332,41.466499,-81.649334
Kenko Sushi & Teriyaki,11312 Euclid Ave,,,Cleveland,OH,,+12168627690,41.5082855,-81.6058426
Chopstick Chinese Restaurant,11332 Euclid Ave,,,Cleveland,OH,,+12167917998,41.5084707890612,-81.6051659116394
Sakura,5855 Broadway Ave,,,Cleveland,OH,,+12166418888,41.4657962809597,-81.6485204547644
Inchin's Bamboo Garden,11440 Euclid Ave,,,Cleveland,OH,,+12162293003,41.5096408965652,-81.6041102477332
Otani Noodle - Uptown,11472 Euclid Ave,,,Cleveland,OH,,+12168621400,41.5100783553279,-81.6035645521395
Phusion Cafe,11611 Euclid Ave,,,Cleveland,OH,,+12169780088,41.5109853006326,-81.6030496358871
China Kitchen,6208 Broadway Ave,,,Cleveland,OH,,+12166417070,41.46337,-81.64721
China Town 1,3718 Pearl Rd,,,Cleveland,OH,,+12167411202,41.4536049,-81.7015822
Teriyaki Express,13201 Superior Ave,,,East Cleveland,OH,,+12166005129,41.523271476023,-81.5907681360841
Pandas,4174 Wheatley Rd,Ste 600,,Richfield,OH,,+13306593375,41.2198104858398,-81.6371383666992
China King Chinese Restaurant,1120 Pearl Rd,,,Brunswick,OH,,+13302257911,41.24492,-81.84142
Dragon,3668 Center Rd,,,Brunswick,OH,,+13302208038,41.2385172830581,-81.8243254624994
Imperial Dragon,8310 Tyler Blvd,,,Mentor,OH,,+14409748838,41.682391,-81.342572
King China Buffet,5983 Andrews Rd,,,Mentor-on-the-Lake,OH,,+14402578880,41.7085228,-81.3611832
Ninja Sushi And Hibachi,7873 Munson Rd,,,Mentor-on-the-Lake,OH,,+14407018293,41.70536,-81.35826
New China Buffet,5935 Andrews Rd,,,Mentor-on-the-Lake,OH,,+14402578883,41.7094114366166,-81.3593401014805
Food King,1733 Pearl Rd,Ste 115,,Brunswick,OH,,+13305580688,41.2283199,-81.84097
Hunan Express,112 Barrington Town Square Dr,,,Aurora,OH,,+13309950806,41.3198836259191,-81.348926315764
Otani Steakhouse and Sushi,180 West Streetsboro St,,,Hudson,OH,,+13306560012,41.238819,-81.4496042
Noble House,60 W Streetsboro St,,,Hudson,OH,,+13306559550,41.2398065801413,-81.4427185057662
Tong-Tong Chinese Restaurant,1646 Norton Rd,,,Stow,OH,,+13306552550,41.200965,-81.43725
New Peking Express,9507 State Rte 14,,,Streetsboro,OH,,+13306269871,41.24372,-81.35639
Panda Express,9540 State Rte 14,,,Streetsboro,OH,,+13303823781,41.2444003600855,-81.3552651267045
Hunan of Stow,4157 Bridgewater Pkwy,,,Stow,OH,,+13309293355,41.1797798,-81.4810496
Fun Buffet,9421 State Rt 14,,,Streetsboro,OH,,+13306269188,41.2412573166472,-81.352503917297
Tai Wah Asian Cuisine,9160 State Rte 14,,,Streetsboro,OH,,+13306262626,41.2396916527391,-81.3421118345257
Toko Japanese Steak House,1619 State Rt 303,,,Streetsboro,OH,,+13304221236,41.2392649,-81.3358984
Mandarin House Restaurant of China,3201 State Rd,,,Cuyahoga Falls,OH,,+13309298157,41.15903,-81.50967
Sunrise Kitchen,3515 Hudson Dr,Ste 700,,Stow,OH,,+13309224062,41.165096282959,-81.4758834838867
Asian Grill,1166 N Court St,,,Medina,OH,,+13307643332,41.157551,-81.861324
Tokyo Hibachi & Sushi,1132 N Court St,,,Medina,OH,,+13309522818,41.156908,-81.861845
Bangkok Thai Restaurant,3767 Darrow Rd,,,Stow,OH,,+13306157997,41.1673719904518,-81.4399877563119
King Dragon,3310 Kent Rd,,,Stow,OH,,+13306888800,41.1590538,-81.4414597
Phoenix Express,3063 Graham Rd,,,Stow,OH,,+13306787788,41.1670585223255,-81.4041273577702
Main Moon,4439 Kent Rd,,,Stow,OH,,+13306733888,41.156902,-81.400806
Hibachi Xpress,1143 Lake St,,,Kent,OH,,+13309684085,41.1624815452,-81.3417480261
Ming Cheng Restaurant,1687 E Main St,,,Kent,OH,,+13306781600,41.1545944,-81.3326645
Evergreen Chinese Buffet,1665 E Main St,,,Kent,OH,,+13306738882,41.1548805,-81.3337326
Toko Japanese Steak House,1855 State Route 59,,,Kent,OH,,+13309684680,41.155537,-81.32692
Yummy Garden,1879 E Main St,,,Kent,OH,,+13306780505,41.1548503605972,-81.3291830196977
Inchin's Bamboo Garden,5106 Great Northern Shop Ctr,,,North Olmsted,OH,,+14407340500,41.4164702649214,-81.9236755371094
Yukiho Japanese Restaurant,35101 Euclid Ave,Ste 10,,Willoughby,OH,,+14406029051,41.62651,-81.43753
Ming Moon,12758 Royalton Rd,,,North Royalton,OH,,+14408772238,41.3129518138715,-81.7543441506188
Arashi Japan,30006 Detroit Rd,,,Westlake,OH,,+14408928888,41.4647077881033,-81.9518462417335
Blue Sushi Sake Grill,2000 Crocker Rd,,,Westlake,OH,,+14403284500,41.461735,-81.951228
Peking Chef Chinese Restaurant,5900 Som Center Rd,,,Solon,OH,,+14405851221,41.3991050720215,-81.439208984375
China Wok,29241 Center Ridge Rd,,,Westlake,OH,,+14408923889,41.43279,-81.94279
Li Garden Restaurant,34650 Vine St,,,Willowick,OH,,+14406028888,41.6423951,-81.4421266
Ming Moon Chinese Restaurant,12758 Royalton Rd,,,North Royalton,OH,,+14408772238,41.31537,-81.7831999
Hong To Chinese Restaurant,4905 Robinhood Dr,,,Willoughby,OH,,+14409421633,41.6256832,-81.4268851
Wok of the Falls,8185 Columbia Rd,,,Olmsted Falls,OH,,+14402356655,41.3733788,-81.9010086
Imperial Wok Chinese Restaurant,33825 Aurora Rd,,,Solon,OH,,+14402483833,41.3852806091309,-81.4384078979492
Smiles Chinese Food,500 W Aurora Rd,,,Northfield,OH,,+13309080986,41.313509689821,-81.5569987893105
Dragon Garden Restaurant,9415 Olde 8 Rd,,,Northfield,OH,,+13304680557,41.31627,-81.53838
Samurai Sushi and Steakhouse,16670 Royalton Rd,,,Strongsville,OH,,+14402386948,41.315657,-81.815215
China King 1,375 Lear Rd,,,Avon Lake,OH,,+14409336009,41.49539,-81.98626
Sarku Japan,500 Southpark Ctr,,,Strongsville,OH,,+14402386683,41.3123099,-81.82039
Fuji Japanese Restaurant,8210 Macedonia Cmns Blvd,,,Macedonia,OH,,+13304675553,41.3122138977051,-81.5183639526367
Dean's House,14393 Pearl Rd,,,Strongsville,OH,,+14402689598,41.3099573,-81.8350851
Zuki Sushi House,899 E Aurora Rd,,,Macedonia,OH,,+13307480999,41.3142427640058,-81.5064394794309
Sakura Sushi House,15040 Pearl Rd,,,Strongsville,OH,,+14402689668,41.3061263,-81.8353549
China Moon,10735 Ravenna Rd,,,Twinsburg,OH,,+13309633888,41.331638,-81.464009
Hunan by the Falls,508 E Washington St,,,Chagrin Falls,OH,,+14402470808,41.426765,-81.3738366
Lily Chinese Restaurant,27091 Bagley Rd,,,Olmsted Township,OH,,+14402354863,41.37204,-81.94253
Asia Garden,19648 W 130th St,,,Strongsville,OH,,+14402686622,41.278181635483,-81.7852382394222
Shinto Japanese Steakhouse & Sushi Bar,17070 Pearl Rd,,,Strongsville,OH,,+14408783868,41.293935,-81.835899
Wah Sun,12550 Chillicothe Rd,,,Chesterland,OH,,+14407290772,41.5277023,-81.3380661
China King,33125 Center Ridge Rd,,,North Ridgeville,OH,,+14403530444,41.40475,-81.982606
Hunan Chester,12611 Chillicothe Rd,,,Chesterland,OH,,+14407293229,41.525976,-81.336288
Mark Pi's China Gate,32730 Walker Rd,,,Avon Lake,OH,,+14409302623,41.49345,-82.01562
Fujiyama Steakhouse & Sushi Bar,35840 Chester Rd,,,Avon,OH,,+14409373888,41.4683036804199,-82.0155410766602
Mandarin,35956 Detroit Rd,,,Avon,OH,,+14409379959,41.460125,-82.015855
Panda Express,1401 Center Rd,,,Avon,OH,,+14409370971,41.4691486287689,-82.0192191361825
King Dragon,20906 Drake Rd,,,Strongsville,OH,,+14402388278,41.29055,-81.85675
Ginger Sushi Burrito and Hibachi,7413 Mentor Ave,,,Mentor,OH,,+14409468881,41.6536477026435,-81.3766068220139
Little Hong Kong,34137 Center Ridge Rd,,,North Ridgeville,OH,,+14403277633,41.3983595,-81.9955516
Good Fortune Asian Cuisine,7537 Mentor Ave,,,Mentor,OH,,+14409750725,41.65649,-81.37248
Empress Court,8307 Washington St,,,Chagrin Falls,OH,,+14405432920,41.414337,-81.345348
Samurai Japanese Steak House,7155 N Aurora Rd,,,Aurora,OH,,+13309950880,41.3531802076014,-81.3863461820382
Fuji Japanese Steakhouse,7850 Mentor Ave,Ste 786,Great Lake Mall,Mentor,OH,,+14402051888,41.65662,-81.360691
Maing Wok Kitchen,35085 Center Ridge Rd,,,North Ridgeville,OH,,+14403533515,41.3928,-82.00644
Sarku Japan,7850 Mentor Ave,Ste 848,,Mentor,OH,,+14409745808,41.6604194641113,-81.3599853515625
Hakka Wok,1077 N Aurora Rd,,,Aurora,OH,,+13309958983,41.3473895484,-81.3782684536
Magic Wok,1027 N Aurora Rd,,,Aurora,OH,,+13309950783,41.34568,-81.3763
Beijing Garden,7995 Darrow Rd,,,Twinsburg,OH,,+13304259795,41.283934,-81.440302
Hibachi Japanese Steakhouse,21699 Lorain Rd,,,Fairview Park,OH,,+14403563033,41.442709,-81.8607674
China House,21789 Lorain Rd,,,Cleveland,OH,,+14403565898,41.4417686,-81.8619385
Pacific East,28601 Chagrin Blvd,Ste 850,,Woodmere,OH,,+12167651305,41.462983,-81.47771
Golden Mountain Restaurant,27910 Chardon Rd,,,Willoughby Hills,OH,,+14409432997,41.58284,-81.48407
Great Wall,6871 W 130th St,,,Cleveland,OH,,+14408889999,41.3776398,-81.7837601
Tang's Wok,25780 Miles Rd,,,Bedford,OH,,+12163608688,41.4239311,-81.4969406
Mandarin House Chinese Restaurant,10393 W Pleasant Valley Rd,,,Cleveland,OH,,+14408427888,41.36352,-81.75811
Asian Wok Chinese Restaurant,24389 Detroit Rd,,,Westlake,OH,,+14408710880,41.47061,-81.89072
China Wok,8021 Broadview Rd,,,Broadview Heights,OH,,+14408380858,41.347579,-81.6839395432024
Hibachi Japanese Steakhouse,775 Alpha Dr,,,Highland Heights,OH,,+14404499309,41.5391563,-81.4529642
Otani Japanese Restaurant,1625 Golden Gate Plz,,,Mayfield Heights,OH,,+14404427098,41.51614,-81.45047
Fuji To Go,25610 Aurora Rd,,,Bedford,OH,,+14403592698,41.4081003287095,-81.4983439224952
Shinto - Westlake,857 Columbia Rd,,,Westlake,OH,,+14407725017,41.47451,-81.90077
Wah Fu Chinese Restaurant,15210 Bagley Rd,,,Cleveland,OH,,+14408863456,41.3696012126997,-81.8036576249051
Red Bowl,28500 Miles Rd,,,Solon,OH,,+14403948575,41.42381,-81.47743
Shinano Sushi Bar & Japanese Cuisine,28500 Miles Rd,,,Solon,OH,,+14404981614,41.42381,-81.47743
China Dragon,87 Northfield Rd,,,Bedford,OH,,+14402325911,41.3802109,-81.5265274
Grand China,6631 Mayfield Rd,,,Cleveland,OH,,+14409951819,41.5202549,-81.4401066
Fried Rice Hibachi 2 Go,1446 Som Center Rd,,,Mayfield Heights,OH,,+14406831806,41.52114,-81.4395
Blue Jade,7080 Engle Rd,Ste B,,Cleveland,OH,,+14402341668,41.37463,-81.8255234
Little Hong Kong,18332 Bagley Rd,,,Middleburg Heights,OH,,+14402608888,41.3734,-81.82972
Hundred Flowers,28898 Lake Shore Blvd,,,Willowick,OH,,+14409430850,41.62945,-81.48373
Ohashi Sushi,24539 Lorain Rd,,,North Olmsted,OH,,+14407160988,41.42592,-81.89312
Umi Sushi,7558 Pearl Rd,,,Middleburg Heights,OH,,+14402342888,41.359950752897,-81.8155999481678
House of Hunan,7571 Pearl Rd,,,Cleveland,OH,,+14402343744,41.3593636,-81.8148727
Hop Hing,5630 Wallings Rd,,,North Royalton,OH,,+14405824666,41.33055,-81.72631
New Wong's Chinese Restaurant,30160 Euclid Ave,,,Wickliffe,OH,,+14405852822,41.615892,-81.4609137
Foo Sing,25102 Brookpark Rd,Ste 130,,North Olmsted,OH,,+14407346062,41.4193581,-81.8968105
Yuzu King Japanese Cuisine,27333 Detroit Rd,,,Westlake,OH,,+14406171010,41.466496,-81.9236206
Chin's Pagoda Chinese & American Restaurant,30708 Lake Shore Blvd,,,Willowick,OH,,+14409448118,41.6403991,-81.4730514
TJ Hibachi & Sushi Bar,198 Great Northern Mall,,,North Olmsted,OH,,+14407168880,41.4173832579385,-81.9066131113625
Peking Chinese,5900 Som Center Rd,Ste 11,,Willoughby,OH,,+14405851221,41.60772,-81.44055
Sakura Japanese Restaurant,8409 Chippewa Rd,,,Brecksville,OH,,+14405263300,41.320199,-81.6228153
Frankie's Wok,8926 Brecksville Rd,,,Brecksville,OH,,+14405465388,41.3193,-81.62706
Hunan Solon,6050 Enterprise Pkwy,,,Solon,OH,,+14402488836,41.395033,-81.463795
Nam Wah Chinese Vietnamese,392 W Bagley Rd,,,Berea,OH,,+14402438181,41.3722949,-81.867235
Feng Lz Hibachi Sushi & Bar,1100 W Royalton Rd,Unit F,,Broadview Heights,OH,,+14404572380,41.3144329,-81.6864448
China Mountain II,31616 Vine St,,,Willowick,OH,,+14409430055,41.642097,-81.4653488
China House,420 W Bagley Rd,,,Berea,OH,,+14408169393,41.372455,-81.86824
South China Wok Restaurant,500 E Royalton Rd,,,Broadview Heights,OH,,+14405261511,41.313354,-81.682212
Issho Ni,34302 Euclid Ave,Unit 1-2,,Willoughby,OH,,+14403068020,41.623494,-81.444118
Shanghai Wok by B & Y,10424 Northfield Rd,,,Northfield,OH,,+13304677020,41.3423913195638,-81.5295235812664
Jade Chinese Kitchen,14421 Cedar Rd,,,South Euclid,OH,,+12169386982,41.50167,-81.52059
Hibachi One,4454 Mayfield Rd,,,South Euclid,OH,,+12164171596,41.5202236338531,-81.5191432012134
Spring Garden Chinese,4737 W 130th St,,,Cleveland,OH,,+12162516711,41.42524,-81.77978
Happy Buddha Cafe,2173 S Green Rd,,,Cleveland,OH,,+12162912446,41.5006901721585,-81.5183592109756
China Kitchen II,5607 Turney Rd,,,Cleveland,OH,,+12166633308,41.41054,-81.60089
First Wok,21051 Euclid Ave,,,Cleveland,OH,,+12167389000,41.56993,-81.53358
Hibachi Japanese Steakhouse,6901 Rockside Rd,Ste 111,,Independence,OH,,+12165200433,41.3956692231282,-81.6425842552948
Thai Gourmet,6901 Rockside Rd,Ste 3,,Independence,OH,,+12169862828,41.395547,-81.641748
China Chef,15200 Puritas Ave,,,Cleveland,OH,,+12169417833,41.435459,-81.8028408
Jackie Chen's Dragon Towers Chinese Restaurant,17452 Lorain Ave,,,Cleveland,OH,,+12162516696,41.4501449,-81.8187626
Ming Home,15720 Broadway Ave,,,Maple Heights,OH,,+12166627850,41.416596,-81.5719
Turney China,5851 Turney Rd,,,Cleveland,OH,,+12166628899,41.40343,-81.5959
China Sea,417 E 200th St,,,Euclid,OH,,+12164869818,41.5947,-81.53988
Wasabi Express,18900 Lorain Rd,,,Fairview Park,OH,,+12165055053,41.45356,-81.82969
China Dragon,11680 Snow Rd,,,Parma Heights,OH,,+14408428888,41.4051749,-81.7685512
Taydo Vietnamese & Chinese Restaurant,11725 Snow Rd,,,Parma,OH,,+14408420392,41.4044,-81.76989
Shuhei,23360 Chagrin Blvd,,,Beachwood,OH,,+12164641720,41.4637718200684,-81.5142669677734
Teriyaki Express,4640 Warrensville Center Rd,,,North Randall,OH,,+12167145800,41.4346630937912,-81.5361987547711
Benihana,23611 Chagrin Blvd,,,Cleveland,OH,,+12164647575,41.464981,-81.511579
Ho Wah,2101 Richmond Rd,,,Beachwood,OH,,+12168312327,41.500679,-81.496429
Hunan East,724 Richmond Rd,,,Cleveland,OH,,+12163812266,41.5407985,-81.4973389
Osaka Japan Grille,691 Richmond Rd,,,Richmond Heights,OH,,+14406461553,41.5413887053728,-81.4971097558737
Asian Chao,26300 Cedar Rd,,Beachwood Pl,Beachwood,OH,,+12165910283,41.4986,-81.4942169
Japan Cafe,26300 Cedar Rd,,,Beachwood,OH,,+12165951593,41.4986,-81.49422
Nori Japan,26300 Cedar Rd,,,Beachwood,OH,,+12169104332,41.498406,-81.494032
King Wah,20668 Center Ridge Rd,,,Rocky River,OH,,+14403310330,41.4628571,-81.8496983
Golden Lily,6253 Pearl Rd,,,Cleveland,OH,,+14408857388,41.39098,-81.76066
Asian Chao,691 Richmond Rd,Ste -  Vc 07,,Cleveland,OH,,+14404492040,41.541888,-81.493008
Best Wok Chinese,7671 W Ridgewood Dr,,,Cleveland,OH,,+14408881110,41.383402,-81.737832
Double Dragon Buffet,6276 Pearl Rd,,,Cleveland,OH,,+14408888177,41.3905106,-81.7619934
Panda Express,21085 Center Ridge Rd,,,Fairview Park,OH,,+14403332660,41.4613136115506,-81.8538868368156
China Chef,6328 Pearl Rd,,,Cleveland,OH,,+14408888999,41.3887634277344,-81.7644195556641
Omizu Japanese Restaurant,6843 Ridge Rd,,,Parma,OH,,+14403400888,41.379137,-81.733429
Panda Express,6895 Ridge Rd,,,Parma,OH,,+14408887979,41.3780450831478,-81.7341383189276
Chopsticks Express,8800 Day Dr,,,Parma,OH,,+14408826209,41.38089,-81.74598
China Wok,6178 Dunham Rd,,,Maple Heights,OH,,+12165818885,41.391911,-81.576027
Wing Kee,23161 Emery Rd,,,Cleveland,OH,,+12168310100,41.4357413332081,-81.5152082
Hong Kong Restaurant,5855 Smith Rd,,,Brook Park,OH,,+12162677120,41.4045465,-81.8040407
P.F. Chang's,26001 Chagrin Blvd,,,Beachwood,OH,,+12162921411,41.4650887865235,-81.4937630295753
China House,22316 Lake Shore Blvd,,,Euclid,OH,,+12162896886,41.60932929998,-81.52565077206
New Asian Delight,5391 Warrensville Center Rd,,,Maple Heights,OH,,+12163321616,41.4137802,-81.5371323
China King,7087 Brecksville Rd,,,Independence,OH,,+12163280983,41.3695455,-81.6378501
Asian Express,26010 Euclid Ave,,,Euclid,OH,,+12164718855,41.5882999,-81.50049
Wasabi Japanese Steakhouse,3725 Orange Pl,,,Beachwood,OH,,+12162928866,41.45793,-81.48734
Hibachi Taste,27043 Chardon Rd,,,Richmond Heights,OH,,+14404947089,41.581221,-81.490829
Dragon Gate,6681 W 130th St,,,Parma Heights,OH,,+14407430800,41.38239,-81.78413
Blue Ginger Asian Bistro,1061 W Pleasant Valley Rd,,,Parma,OH,,+14408428880,41.3598122951615,-81.6856487672348
China One,11708 Buckeye Rd,,,Cleveland,OH,,+12169912222,41.4805908203125,-81.601432800293
Teriyaki Express,7060 Denison Ave,,,Cleveland,OH,,+12168624008,41.4620331,-81.7368279
Flying Cranes Cafe,13006 Larchmere Blvd,,,Cleveland,OH,,+12167951033,41.48721,-81.59165
SASA,13120 Shaker Sq,,,Cleveland,OH,,+12167671111,41.48319,-81.59123
Hunan Coventry,1800 Coventry Rd,,,Cleveland Heights,OH,,+12163710777,41.5103685018715,-81.5802007953138
Pacific East Japanese Restaurant,1763 Coventry Rd,,,Cleveland Heights,OH,,+12163202302,41.5115,-81.5798
Jackie Chen Wok,2756 Van Aken Blvd,,,Cleveland,OH,,+12162833888,41.4828682,-81.5888519
China Wok,3006 Broadview Rd,,,Cleveland,OH,,+12163986363,41.44045,-81.702275
Number 1 Kitchen,10670 Lorain Ave,,,Cleveland,OH,,+12162525588,41.46549,-81.76114
China City,4225 Fulton Rd,,,Cleveland,OH,,+12163515888,41.4415398,-81.7228775
China Mountain I,14959 Saint Clair Ave,,,Cleveland,OH,,+12164519222,41.5531616,-81.5769272
Richie Chan's Chinese Restaurant,13181 Cedar Rd,,,Cleveland,OH,,+12169328900,41.5013749,-81.56623
Dragon Light,3537 W 105th St,,,Cleveland,OH,,+12162510504,41.4561,-81.75852
Sun Sun Chinese Restaurant,4203 Ridge Rd,,,Cleveland,OH,,+12167495622,41.4423103,-81.7348633
China Star,3283 W 117th St,,,Cleveland,OH,,+12162515551,41.46291,-81.76872
China House,7413 Memphis Ave,,,Cleveland,OH,,+12163518888,41.43982,-81.73633
Hako,13603 Madison Ave,,,Lakewood,OH,,+12162737110,41.476853,-81.786986
Sun Luck Garden,1901 S Taylor Rd,,,Cleveland Heights,OH,,+12163977676,41.50781,-81.5553
China Dragon,3468 Mayfield Rd,,,Cleveland,OH,,+12163815783,41.51628,-81.55327
Hibachi To Go,16933 Chagrin Blvd,,,Shaker Heights,OH,,+12167518080,41.4710004740839,-81.5667129042241
China Bay,6820 Biddulph Rd,,,Cleveland,OH,,+12164592222,41.431217,-81.7332203
Ming Moon,3786 W 117th St,,,Cleveland,OH,,+12166710006,41.4500699,-81.76942
China Jade,2190 Brookpark Rd,,,Cleveland,OH,,+12167494720,41.4193344,-81.6958084
Empire Chinese Restaurant,4793 Turney Rd,,,Cleveland,OH,,+12166411888,41.4299202,-81.6152802
Jackie Chen's Asian Dinner,2199 Brookpark Rd,,,Cleveland,OH,,+12167390988,41.418969,-81.6963523
East China,5216 Broadview Rd,,,Cleveland,OH,,+12163518889,41.418571472168,-81.6953430175781
East China,16834 Chagrin,,,Shaker Heights,OH,,+12162835540,41.46435,-81.56163
Kintaro Sushi & Hot Pot,7325 Northcliff Ave,,,Brooklyn,OH,,+12164598862,41.42457,-81.73608
Great Wall Chinese Restaurant,4930 Turney Rd,,,Cleveland,OH,,+12168838898,41.42573,-81.61384
Orginal Sakura Japanese F,16122 Lakeshore Blvd,,,Cleveland,OH,,+12164868668,41.57901,-81.56777
China Gate,13919 Cedar Rd,,,South Euclid,OH,,+12169322924,41.5024063,-81.5391659
Pacific Grill,13911 Cedar Rd,,,South Euclid,OH,,+12163209008,41.50165,-81.53917
King Fong,14055 Lorain Ave,,,Cleveland,OH,,+12162517678,41.45445,-81.7917
Panda Express,2100 Warrensville Center Rd,,,South Euclid,OH,,+12163717099,41.50247,-81.5365
Golden Gate Chinese Restaurant,16009 Hilliard Rd,,,Lakewood,OH,,+12162286688,41.4766,-81.8091199
Genji,13998 Cedar Rd,,,University Heights,OH,,+12169323918,41.5010109,-81.5368805
Szechwan Garden,13800 Detroit Ave,,,Lakewood,OH,,+12162261987,41.4857749938965,-81.8136978149414
Oriental Palace Buffet,3364 Warren Rd,,,Cleveland,OH,,+12166719988,41.4623,-81.80325
Fu Sheng,4071 Lee Rd,Ste 160,,Cleveland,OH,,+12167529986,41.448844,-81.563472
Peking Restaurant,18198 Sloane Ave,,,Lakewood,OH,,+12162267800,41.4866,-81.824
Kumo Japanese Seafood Buffet,1975 Snow Rd,,,Parma,OH,,+12167413038,41.403182,-81.695767083899
Mizu Japanese Sushi Restaurant,10219 Brookpark Rd,,,Parma,OH,,+12168980098,41.41802,-81.75604
Wasabi Japanese Steakhouse,4181 Rockside Rd,,,Independence,OH,,+12169018866,41.4001499,-81.66212
China Express,5720 Ridge Rd,,,Cleveland,OH,,+14408882636,41.40675,-81.73487
Ni's Express Chinese Restaurant,6064 Broadview Rd,,,Cleveland,OH,,+12166350888,41.3984458,-81.6885519
